{"type": "FeatureCollection", "features": [ {"type": "Feature", "properties": {"norad_id": 29878, "name": "FENGYUN 1C DEB", "group": "fengyun-1c-debris", "lat": 46.77298739025623, "lon": 164.70326452720397, "alt_km": 516.7194345364633, "timestamp": "2025-12-26T22:28:06.056159+00:00", "meta": {"OBJECT_NAME": "FENGYUN 1C DEB", "OBJECT_ID": "1999-025FY", "EPOCH": "2025-12-26T11:08:59.974656", "MEAN_MOTION": 15.13027975, "ECCENTRICITY": 0.00237991, "INCLINATION": 96.9477, "RA_OF_ASC_NODE": 171.7276, "ARG_OF_PERICENTER": 118.1135, "MEAN_ANOMALY": 242.2507, "EPHEMERIS_TYPE": 0, "CLASSIFICATION_TYPE": "U", "NORAD_CAT_ID": 29878, "ELEMENT_SET_NO": 999, "REV_AT_EPOCH": 98855, "BSTAR": 0.0066296338, "MEAN_MOTION_DOT": 0.00119674, "MEAN_MOTION_DDOT": 0}, "tle": {"line1": "1 29878U 99025FY  25360.46458304  .00119674  00000+0  66296-2 0  9997", "line2": "2 29878  96.9477 171.7276 0023799 118.1135 242.2507 15.13027975988556"}}, "geometry": {"type": "Point", "coordinates": [164.70326452720397, 46.77298739025623]}}, {"type": "Feature", "properties": {"norad_id": 29880, "name": "FENGYUN 1C DEB", "group": "fengyun-1c-debris", "lat": 45.36849620573227, "lon": -90.50263380651013, "alt_km": 747.3992651237895, "timestamp": "2025-12-26T22:28:06.056169+00:00", "meta": {"OBJECT_NAME": "FENGYUN 1C DEB", "OBJECT_ID": "1999-025GA", "EPOCH": "2025-12-25T17:06:31.382208", "MEAN_MOTION": 13.93958568, "ECCENTRICITY": 0.02324158, "INCLINATION": 98.1958, "RA_OF_ASC_NODE": 276.805, "ARG_OF_PERICENTER": 65.2607, "MEAN_ANOMALY": 325.9984, "EPHEMERIS_TYPE": 0, "CLASSIFICATION_TYPE": "U", "NORAD_CAT_ID": 29880, "ELEMENT_SET_NO": 999, "REV_AT_EPOCH": 95743, "BSTAR": 0.001394527, "MEAN_MOTION_DOT": 2.27e-05, "MEAN_MOTION_DDOT": 0}, "tle": {"line1": "1 29880U 99025GA  25359.71286322  .00002270  00000+0  13945-2 0  9991", "line2": "2 29880  98.1958 276.8050 0232415  65.2607 325.9984 13.93958568957435"}}, "geometry": {"type": "Point", "coordinates": [-90.50263380651013, 45.36849620573227]}}, {"type": "Feature", "properties": {"norad_id": 29881, "name": "FENGYUN 1C DEB", "group": "fengyun-1c-debris", "lat": -12.045608998115537, "lon": 149.70693193148782, "alt_km": 1240.768496107141, "timestamp": "2025-12-26T22:28:06.056180+00:00", "meta": {"OBJECT_NAME": "FENGYUN 1C DEB", "OBJECT_ID": "1999-025GB", "EPOCH": "2025-12-26T09:54:47.869920", "MEAN_MOTION": 13.59677297, "ECCENTRICITY": 0.02933988, "INCLINATION": 98.7244, "RA_OF_ASC_NODE": 331.1178, "ARG_OF_PERICENTER": 36.2136, "MEAN_ANOMALY": 115.2727, "EPHEMERIS_TYPE": 0, "CLASSIFICATION_TYPE": "U", "NORAD_CAT_ID": 29881, "ELEMENT_SET_NO": 999, "REV_AT_EPOCH": 93420, "BSTAR": 0.0026263499, "MEAN_MOTION_DOT": 2.552e-05, "MEAN_MOTION_DDOT": 0}, "tle": {"line1": "1 29881U 99025GB  25360.41305405  .00002552  00000+0  26263-2 0  9995", "line2": "2 29881  98.7244 331.1178 0293398  36.2136 115.2727 13.59677297934202"}}, "geometry": {"type": "Point", "coordinates": [149.70693193148782, -12.045608998115537]}}, {"type": "Feature", "properties": {"norad_id": 29884, "name": "FENGYUN 1C DEB", "group": "fengyun-1c-debris", "lat": -47.338038954477085, "lon": 46.66728209147068, "alt_km": 789.8041609337542, "timestamp": "2025-12-26T22:28:06.056190+00:00", "meta": {"OBJECT_NAME": "FENGYUN 1C DEB", "OBJECT_ID": "1999-025GE", "EPOCH": "2025-12-26T01:09:44.828928", "MEAN_MOTION": 14.40347225, "ECCENTRICITY": 0.00442799, "INCLINATION": 99.6022, "RA_OF_ASC_NODE": 35.0872, "ARG_OF_PERICENTER": 99.0324, "MEAN_ANOMALY": 292.4989, "EPHEMERIS_TYPE": 0, "CLASSIFICATION_TYPE": "U", "NORAD_CAT_ID": 29884, "ELEMENT_SET_NO": 999, "REV_AT_EPOCH": 98741, "BSTAR": 0.00058374839, "MEAN_MOTION_DOT": 1.82e-05, "MEAN_MOTION_DDOT": 0}, "tle": {"line1": "1 29884U 99025GE  25360.04843552  .00001820  00000+0  58375-3 0  9994", "line2": "2 29884  99.6022  35.0872 0044279  99.0324 292.4989 14.40347225987413"}}, "geometry": {"type": "Point", "coordinates": [46.66728209147068, -47.338038954477085]}}, {"type": "Feature", "properties": {"norad_id": 29885, "name": "FENGYUN 1C DEB", "group": "fengyun-1c-debris", "lat": -64.45678116280112, "lon": 97.13092179264503, "alt_km": 899.3829612532909, "timestamp": "2025-12-26T22:28:06.056200+00:00", "meta": {"OBJECT_NAME": "FENGYUN 1C DEB", "OBJECT_ID": "1999-025GF", "EPOCH": "2025-12-25T20:09:36.688608", "MEAN_MOTION": 14.13588077, "ECCENTRICITY": 0.01190474, "INCLINATION": 98.357, "RA_OF_ASC_NODE": 294.0197, "ARG_OF_PERICENTER": 126.7056, "MEAN_ANOMALY": 302.6797, "EPHEMERIS_TYPE": 0, "CLASSIFICATION_TYPE": "U", "NORAD_CAT_ID": 29885, "ELEMENT_SET_NO": 999, "REV_AT_EPOCH": 97642, "BSTAR": 0.00014595725, "MEAN_MOTION_DOT": 2.55e-06, "MEAN_MOTION_DDOT": 0}, "tle": {"line1": "1 29885U 99025GF  25359.84000797  .00000255  00000+0  14596-3 0  9995", "line2": "2 29885  98.3570 294.0197 0119047 126.7056 302.6797 14.13588077976423"}}, "geometry": {"type": "Point", "coordinates": [97.13092179264503, -64.45678116280112]}}, {"type": "Feature", "properties": {"norad_id": 29887, "name": "FENGYUN 1C DEB", "group": "fengyun-1c-debris", "lat": -32.32648906748376, "lon": 88.24901027981888, "alt_km": 583.3733240955607, "timestamp": "2025-12-26T22:28:06.056210+00:00", "meta": {"OBJECT_NAME": "FENGYUN 1C DEB", "OBJECT_ID": "1999-025GH", "EPOCH": "2025-12-26T04:20:17.812608", "MEAN_MOTION": 14.33768502, "ECCENTRICITY": 0.02862209, "INCLINATION": 98.7165, "RA_OF_ASC_NODE": 81.9156, "ARG_OF_PERICENTER": 319.3941, "MEAN_ANOMALY": 70.4686, "EPHEMERIS_TYPE": 0, "CLASSIFICATION_TYPE": "U", "NORAD_CAT_ID": 29887, "ELEMENT_SET_NO": 999, "REV_AT_EPOCH": 98167, "BSTAR": 0.00055611406, "MEAN_MOTION_DOT": 2.389e-05, "MEAN_MOTION_DDOT": 0}, "tle": {"line1": "1 29887U 99025GH  25360.18076172  .00002389  00000+0  55611-3 0  9999", "line2": "2 29887  98.7165  81.9156 0286220 319.3941  70.4686 14.33768502981673"}}, "geometry": {"type": "Point", "coordinates": [88.24901027981888, -32.32648906748376]}}, {"type": "Feature", "properties": {"norad_id": 29888, "name": "FENGYUN 1C DEB", "group": "fengyun-1c-debris", "lat": 60.130599120721456, "lon": 177.8354047195771, "alt_km": 768.5213658923985, "timestamp": "2025-12-26T22:28:06.056221+00:00", "meta": {"OBJECT_NAME": "FENGYUN 1C DEB", "OBJECT_ID": "1999-025GJ", "EPOCH": "2025-12-26T12:02:36.577536", "MEAN_MOTION": 14.19887411, "ECCENTRICITY": 0.02744807, "INCLINATION": 99.1912, "RA_OF_ASC_NODE": 193.7587, "ARG_OF_PERICENTER": 346.2594, "MEAN_ANOMALY": 13.1214, "EPHEMERIS_TYPE": 0, "CLASSIFICATION_TYPE": "U", "NORAD_CAT_ID": 29888, "ELEMENT_SET_NO": 999, "REV_AT_EPOCH": 97699, "BSTAR": 0.00040771733, "MEAN_MOTION_DOT": 1.207e-05, "MEAN_MOTION_DDOT": 0}, "tle": {"line1": "1 29888U 99025GJ  25360.50181224  .00001207  00000+0  40772-3 0  9991", "line2": "2 29888  99.1912 193.7587 0274480 346.2594  13.1214 14.19887411976992"}}, "geometry": {"type": "Point", "coordinates": [177.8354047195771, 60.130599120721456]}}, {"type": "Feature", "properties": {"norad_id": 29889, "name": "FENGYUN 1C DEB", "group": "fengyun-1c-debris", "lat": 2.518030344039234, "lon": -60.40539261296836, "alt_km": 961.0352032778919, "timestamp": "2025-12-26T22:28:06.056231+00:00", "meta": {"OBJECT_NAME": "FENGYUN 1C DEB", "OBJECT_ID": "1999-025GK", "EPOCH": "2025-12-26T13:24:55.053792", "MEAN_MOTION": 14.13527254, "ECCENTRICITY": 0.01539434, "INCLINATION": 99.4771, "RA_OF_ASC_NODE": 118.7742, "ARG_OF_PERICENTER": 0.6311, "MEAN_ANOMALY": 58.1692, "EPHEMERIS_TYPE": 0, "CLASSIFICATION_TYPE": "U", "NORAD_CAT_ID": 29889, "ELEMENT_SET_NO": 999, "REV_AT_EPOCH": 97514, "BSTAR": 0.00028893216, "MEAN_MOTION_DOT": 5.59e-06, "MEAN_MOTION_DDOT": 0}, "tle": {"line1": "1 29889U 99025GK  25360.55897053  .00000559  00000+0  28893-3 0  9990", "line2": "2 29889  99.4771 118.7742 0153943   0.6311  58.1692 14.13527254975142"}}, "geometry": {"type": "Point", "coordinates": [-60.40539261296836, 2.518030344039234]}}, {"type": "Feature", "properties": {"norad_id": 29890, "name": "FENGYUN 1C DEB", "group": "fengyun-1c-debris", "lat": 11.77759639596573, "lon": -54.48651677893702, "alt_km": 823.2984810982452, "timestamp": "2025-12-26T22:28:06.056242+00:00", "meta": {"OBJECT_NAME": "FENGYUN 1C DEB", "OBJECT_ID": "1999-025GL", "EPOCH": "2025-12-26T06:29:45.870720", "MEAN_MOTION": 14.23087757, "ECCENTRICITY": 0.00142986, "INCLINATION": 99.4687, "RA_OF_ASC_NODE": 122.8043, "ARG_OF_PERICENTER": 35.8147, "MEAN_ANOMALY": 324.3985, "EPHEMERIS_TYPE": 0, "CLASSIFICATION_TYPE": "U", "NORAD_CAT_ID": 29890, "ELEMENT_SET_NO": 999, "REV_AT_EPOCH": 97643, "BSTAR": 0.00091385265, "MEAN_MOTION_DOT": 2.014e-05, "MEAN_MOTION_DDOT": 0}, "tle": {"line1": "1 29890U 99025GL  25360.27066980  .00002014  00000+0  91385-3 0  9992", "line2": "2 29890  99.4687 122.8043 0014298  35.8147 324.3985 14.23087757976432"}}, "geometry": {"type": "Point", "coordinates": [-54.48651677893702, 11.77759639596573]}}, {"type": "Feature", "properties": {"norad_id": 29891, "name": "FENGYUN 1C DEB", "group": "fengyun-1c-debris", "lat": -4.439114291420329, "lon": 3.093461435193336, "alt_km": 928.547858390114, "timestamp": "2025-12-26T22:28:06.056253+00:00", "meta": {"OBJECT_NAME": "FENGYUN 1C DEB", "OBJECT_ID": "1999-025GM", "EPOCH": "2025-12-26T14:31:31.955808", "MEAN_MOTION": 14.00018347, "ECCENTRICITY": 0.00610568, "INCLINATION": 98.7279, "RA_OF_ASC_NODE": 2.0944, "ARG_OF_PERICENTER": 221.3545, "MEAN_ANOMALY": 266.6868, "EPHEMERIS_TYPE": 0, "CLASSIFICATION_TYPE": "U", "NORAD_CAT_ID": 29891, "ELEMENT_SET_NO": 999, "REV_AT_EPOCH": 96682, "BSTAR": 0.00057974987, "MEAN_MOTION_DOT": 8.25e-06, "MEAN_MOTION_DDOT": 0}, "tle": {"line1": "1 29891U 99025GM  25360.60523097  .00000825  00000+0  57975-3 0  9992", "line2": "2 29891  98.7279   2.0944 0061056 221.3545 266.6868 14.00018347966823"}}, "geometry": {"type": "Point", "coordinates": [3.093461435193336, -4.439114291420329]}}]}